{
"type": "FeatureCollection",
"name": "convenience_Nagasaki_fromOSM",
"crs": { "type": "name", "properties": { "name": "urn:ogc:def:crs:OGC:1.3:CRS84" } },
"features": [
{ "type": "Feature", "properties": { "id": "node/794714693", "name": "ファミリーマート", "name:en": "FamilyMart", "name:ja": "ファミリーマート", "name:ko": null, "brand": "FamilyMart", "name:ja_rm": "Famirī Mato" }, "geometry": { "type": "Point", "coordinates": [ 129.7473368, 33.0469001 ] } },
{ "type": "Feature", "properties": { "id": "node/915410829", "name": "セブンイレブン 佐世保白岳町店", "name:en": null, "name:ja": null, "name:ko": null, "brand": null, "name:ja_rm": null }, "geometry": { "type": "Point", "coordinates": [ 129.7491589, 33.1542477 ] } },
{ "type": "Feature", "properties": { "id": "node/1784697570", "name": "セブン-イレブン", "name:en": "Seven-Eleven", "name:ja": "セブン-イレブン", "name:ko": "세븐일레븐", "brand": "7 ELEVEN", "name:ja_rm": "Sebun Irebun" }, "geometry": { "type": "Point", "coordinates": [ 129.800215, 33.1378688 ] } },
{ "type": "Feature", "properties": { "id": "node/1784697582", "name": "セブン-イレブン", "name:en": "Seven-Eleven", "name:ja": "セブン-イレブン", "name:ko": "세븐일레븐", "brand": "7 ELEVEN", "name:ja_rm": "Sebun Irebun" }, "geometry": { "type": "Point", "coordinates": [ 129.801660700000014, 33.1312362 ] } },
{ "type": "Feature", "properties": { "id": "node/1784732508", "name": "セブン-イレブン", "name:en": "Seven-Eleven", "name:ja": "セブン-イレブン", "name:ko": "세븐일레븐", "brand": "7 ELEVEN", "name:ja_rm": "Sebun Irebun" }, "geometry": { "type": "Point", "coordinates": [ 129.8165287, 33.1185153 ] } },
{ "type": "Feature", "properties": { "id": "node/1784739799", "name": "ファミリーマート", "name:en": "FamilyMart", "name:ja": "ファミリーマート", "name:ko": null, "brand": "FamilyMart", "name:ja_rm": "Famirī Mato" }, "geometry": { "type": "Point", "coordinates": [ 129.7955302, 33.1272573 ] } },
{ "type": "Feature", "properties": { "id": "node/1784740439", "name": "セブン-イレブン", "name:en": "Seven-Eleven", "name:ja": "セブン-イレブン", "name:ko": "세븐일레븐", "brand": "7 ELEVEN", "name:ja_rm": "Sebun Irebun" }, "geometry": { "type": "Point", "coordinates": [ 129.792297600000012, 33.1316157 ] } },
{ "type": "Feature", "properties": { "id": "node/1791822577", "name": "大村湾SA", "name:en": null, "name:ja": null, "name:ko": null, "brand": null, "name:ja_rm": null }, "geometry": { "type": "Point", "coordinates": [ 129.947726, 33.0166523 ] } },
{ "type": "Feature", "properties": { "id": "node/1791822590", "name": "大村湾SA", "name:en": null, "name:ja": null, "name:ko": null, "brand": null, "name:ja_rm": null }, "geometry": { "type": "Point", "coordinates": [ 129.9483966, 33.017435 ] } },
{ "type": "Feature", "properties": { "id": "node/1807340056", "name": "ファミリーマート", "name:en": null, "name:ja": null, "name:ko": null, "brand": null, "name:ja_rm": null }, "geometry": { "type": "Point", "coordinates": [ 129.9428888, 32.9693514 ] } },
{ "type": "Feature", "properties": { "id": "node/1815943589", "name": "ローソン", "name:en": null, "name:ja": null, "name:ko": "로손", "brand": null, "name:ja_rm": null }, "geometry": { "type": "Point", "coordinates": [ 129.8407743, 33.1669948 ] } },
{ "type": "Feature", "properties": { "id": "node/1906641965", "name": "てらさき", "name:en": null, "name:ja": null, "name:ko": null, "brand": null, "name:ja_rm": null }, "geometry": { "type": "Point", "coordinates": [ 129.7927161, 33.215519 ] } },
{ "type": "Feature", "properties": { "id": "node/1949260943", "name": "ローソン", "name:en": "Lawson", "name:ja": "ローソン", "name:ko": "로손", "brand": "ローソン", "name:ja_rm": "Rōson" }, "geometry": { "type": "Point", "coordinates": [ 129.8624893, 32.7858258 ] } },
{ "type": "Feature", "properties": { "id": "node/1950137634", "name": "ローソン", "name:en": "Lawson", "name:ja": "ローソン", "name:ko": "로손", "brand": "ローソン", "name:ja_rm": "Rōson" }, "geometry": { "type": "Point", "coordinates": [ 129.866039699999988, 32.7845025 ] } },
{ "type": "Feature", "properties": { "id": "node/1950137635", "name": "ローソン", "name:en": "Lawson", "name:ja": "ローソン", "name:ko": "로손", "brand": "ローソン", "name:ja_rm": "Rōson" }, "geometry": { "type": "Point", "coordinates": [ 129.8710556, 32.7899199 ] } },
{ "type": "Feature", "properties": { "id": "node/2021126674", "name": "ローソン", "name:en": null, "name:ja": null, "name:ko": "로손", "brand": null, "name:ja_rm": null }, "geometry": { "type": "Point", "coordinates": [ 130.014175599999987, 32.8357596 ] } },
{ "type": "Feature", "properties": { "id": "node/2021134106", "name": "セブン-イレブン", "name:en": "Seven-Eleven", "name:ja": "セブン-イレブン", "name:ko": "세븐일레븐", "brand": "7 ELEVEN", "name:ja_rm": "Sebun Irebun" }, "geometry": { "type": "Point", "coordinates": [ 129.9756482, 32.8929798 ] } },
{ "type": "Feature", "properties": { "id": "node/2087165449", "name": "セブン-イレブン", "name:en": "Seven-Eleven", "name:ja": "セブン-イレブン", "name:ko": "세븐일레븐", "brand": "7 ELEVEN", "name:ja_rm": "Sebun Irebun" }, "geometry": { "type": "Point", "coordinates": [ 130.370778800000011, 32.7676881 ] } },
{ "type": "Feature", "properties": { "id": "node/2087165456", "name": "セブン-イレブン", "name:en": "Seven-Eleven", "name:ja": "セブン-イレブン", "name:ko": "세븐일레븐", "brand": "7 ELEVEN", "name:ja_rm": "Sebun Irebun" }, "geometry": { "type": "Point", "coordinates": [ 130.364234, 32.8006535 ] } },
{ "type": "Feature", "properties": { "id": "node/2087165830", "name": "ファミリーマート", "name:en": "FamilyMart", "name:ja": "ファミリーマート", "name:ko": null, "brand": "FamilyMart", "name:ja_rm": "Famirī Mato" }, "geometry": { "type": "Point", "coordinates": [ 130.370903, 32.7659346 ] } },
{ "type": "Feature", "properties": { "id": "node/2098041467", "name": "ファミリーマート", "name:en": "FamilyMart", "name:ja": "ファミリーマート", "name:ko": null, "brand": "FamilyMart", "name:ja_rm": "Famirī Mato" }, "geometry": { "type": "Point", "coordinates": [ 129.8488615, 32.7681067 ] } },
{ "type": "Feature", "properties": { "id": "node/2503413812", "name": "セブン-イレブン", "name:en": "7-Eleven", "name:ja": "セブン-イレブン", "name:ko": "세븐일레븐", "brand": "セブン-イレブン", "name:ja_rm": "Sebun Irebun" }, "geometry": { "type": "Point", "coordinates": [ 129.871256, 32.7361529 ] } },
{ "type": "Feature", "properties": { "id": "node/2503809185", "name": "ファミリーマート", "name:en": "FamilyMart", "name:ja": "ファミリーマート", "name:ko": null, "brand": "ファミリーマート", "name:ja_rm": "Famirī Mato" }, "geometry": { "type": "Point", "coordinates": [ 129.870389100000011, 32.7360905 ] } },
{ "type": "Feature", "properties": { "id": "node/2705456267", "name": "RIC 福江中央店", "name:en": null, "name:ja": null, "name:ko": null, "brand": null, "name:ja_rm": null }, "geometry": { "type": "Point", "coordinates": [ 128.843903, 32.693359 ] } },
{ "type": "Feature", "properties": { "id": "node/2706621492", "name": "RIC", "name:en": null, "name:ja": null, "name:ko": null, "brand": null, "name:ja_rm": null }, "geometry": { "type": "Point", "coordinates": [ 128.757918, 32.749504 ] } },
{ "type": "Feature", "properties": { "id": "node/2905108137", "name": "セブン-イレブン", "name:en": "Seven-Eleven", "name:ja": "セブン-イレブン", "name:ko": null, "brand": "7 ELEVEN", "name:ja_rm": "Sebun-Irebun" }, "geometry": { "type": "Point", "coordinates": [ 129.887246299999987, 32.7360245 ] } },
{ "type": "Feature", "properties": { "id": "node/2905116002", "name": "セブン-イレブン", "name:en": "7-Eleven", "name:ja": "セブン-イレブン", "name:ko": null, "brand": "セブン-イレブン", "name:ja_rm": null }, "geometry": { "type": "Point", "coordinates": [ 129.8796774, 32.7416364 ] } },
{ "type": "Feature", "properties": { "id": "node/2906826247", "name": "デイリーヤマザキ", "name:en": null, "name:ja": null, "name:ko": null, "brand": null, "name:ja_rm": null }, "geometry": { "type": "Point", "coordinates": [ 129.76330870000001, 33.0605298 ] } },
{ "type": "Feature", "properties": { "id": "node/2906826249", "name": "セブン-イレブン", "name:en": "Seven-Eleven", "name:ja": "セブン-イレブン", "name:ko": null, "brand": "7 ELEVEN", "name:ja_rm": "Sebun-Irebun" }, "geometry": { "type": "Point", "coordinates": [ 129.7640118, 33.0663969 ] } },
{ "type": "Feature", "properties": { "id": "node/3085554845", "name": "セブン-イレブン", "name:en": "7-Eleven", "name:ja": "セブン-イレブン", "name:ko": null, "brand": "セブン-イレブン", "name:ja_rm": "Sebun-Irebun" }, "geometry": { "type": "Point", "coordinates": [ 129.856811599999986, 32.8357876 ] } },
{ "type": "Feature", "properties": { "id": "node/3103165740", "name": "ファミリーマート", "name:en": null, "name:ja": null, "name:ko": null, "brand": null, "name:ja_rm": null }, "geometry": { "type": "Point", "coordinates": [ 129.7682836, 33.1034324 ] } },
{ "type": "Feature", "properties": { "id": "node/3103166148", "name": "セブン-イレブン", "name:en": "Seven-Eleven", "name:ja": "セブン-イレブン", "name:ko": null, "brand": "7 ELEVEN", "name:ja_rm": "Sebun-Irebun" }, "geometry": { "type": "Point", "coordinates": [ 129.7700634, 33.1041038 ] } },
{ "type": "Feature", "properties": { "id": "node/3244609581", "name": "ファミリーマート", "name:en": "FamilyMart", "name:ja": "ファミリーマート", "name:ko": null, "brand": "ファミリーマート", "name:ja_rm": null }, "geometry": { "type": "Point", "coordinates": [ 129.9368952, 32.9349578 ] } },
{ "type": "Feature", "properties": { "id": "node/3244686758", "name": "デイリーヤマザキ", "name:en": "Daily Yamazaki", "name:ja": "デイリーヤマザキ", "name:ko": null, "brand": "デイリーヤマザキ", "name:ja_rm": null }, "geometry": { "type": "Point", "coordinates": [ 129.953997, 32.9378213 ] } },
{ "type": "Feature", "properties": { "id": "node/3244687361", "name": "セブン-イレブン", "name:en": "Seven-Eleven", "name:ja": "セブン-イレブン", "name:ko": null, "brand": "7 ELEVEN", "name:ja_rm": "Sebun-Irebun" }, "geometry": { "type": "Point", "coordinates": [ 129.9552952, 32.931536 ] } },
{ "type": "Feature", "properties": { "id": "node/3244687384", "name": "ローソン", "name:en": null, "name:ja": null, "name:ko": "로손", "brand": null, "name:ja_rm": null }, "geometry": { "type": "Point", "coordinates": [ 129.9537824, 32.9310318 ] } },
{ "type": "Feature", "properties": { "id": "node/3246205722", "name": "セブン-イレブン", "name:en": "7-Eleven", "name:ja": "セブン-イレブン", "name:ko": null, "brand": "セブン-イレブン", "name:ja_rm": "Sebun-Irebun" }, "geometry": { "type": "Point", "coordinates": [ 129.950090499999988, 32.9173479 ] } },
{ "type": "Feature", "properties": { "id": "node/3246235986", "name": "ローソン", "name:en": null, "name:ja": null, "name:ko": "로손", "brand": null, "name:ja_rm": null }, "geometry": { "type": "Point", "coordinates": [ 129.9476133, 32.9285824 ] } },
{ "type": "Feature", "properties": { "id": "node/3342260326", "name": "セブン-イレブン", "name:en": "7-Eleven", "name:ja": "セブン-イレブン", "name:ko": null, "brand": "セブン-イレブン", "name:ja_rm": "Sebun-Irebun" }, "geometry": { "type": "Point", "coordinates": [ 129.9464707, 32.9388793 ] } },
{ "type": "Feature", "properties": { "id": "node/3342261322", "name": "セブン-イレブン", "name:en": "7-Eleven", "name:ja": "セブン-イレブン", "name:ko": null, "brand": "セブン-イレブン", "name:ja_rm": "Sebun-Irebun" }, "geometry": { "type": "Point", "coordinates": [ 129.936391, 32.9386001 ] } },
{ "type": "Feature", "properties": { "id": "node/3342262446", "name": "ファミリーマート", "name:en": "FamilyMart", "name:ja": "ファミリーマート", "name:ko": null, "brand": "ファミリーマート", "name:ja_rm": null }, "geometry": { "type": "Point", "coordinates": [ 129.941669600000012, 32.928015 ] } },
{ "type": "Feature", "properties": { "id": "node/3342269099", "name": "ローソン", "name:en": "Lawson", "name:ja": "ローソン", "name:ko": "로손", "brand": "ローソン", "name:ja_rm": null }, "geometry": { "type": "Point", "coordinates": [ 129.9347387, 32.9447453 ] } },
{ "type": "Feature", "properties": { "id": "node/3700956725", "name": "セブン-イレブン", "name:en": "Seven-Eleven", "name:ja": "セブン-イレブン", "name:ko": null, "brand": "7 ELEVEN", "name:ja_rm": "Sebun-Irebun" }, "geometry": { "type": "Point", "coordinates": [ 129.892576100000014, 33.1441639 ] } },
{ "type": "Feature", "properties": { "id": "node/3828530360", "name": "セブン-イレブン", "name:en": "7-Eleven", "name:ja": "セブン-イレブン", "name:ko": "세븐일레븐", "brand": "セブン-イレブン", "name:ja_rm": "Sebun Irebun" }, "geometry": { "type": "Point", "coordinates": [ 129.8769815, 32.7421682 ] } },
{ "type": "Feature", "properties": { "id": "node/4160817225", "name": "RICマート壱岐芦辺店", "name:en": null, "name:ja": null, "name:ko": null, "brand": null, "name:ja_rm": null }, "geometry": { "type": "Point", "coordinates": [ 129.7488593, 33.8053809 ] } },
{ "type": "Feature", "properties": { "id": "node/4262002266", "name": "ファミリーマート", "name:en": "FamilyMart", "name:ja": "ファミリーマート", "name:ko": null, "brand": "ファミリーマート", "name:ja_rm": null }, "geometry": { "type": "Point", "coordinates": [ 129.640632900000014, 32.9357267 ] } },
{ "type": "Feature", "properties": { "id": "node/4267644323", "name": "セブン-イレブン", "name:en": "Seven-Eleven", "name:ja": "セブン-イレブン", "name:ko": null, "brand": "7 ELEVEN", "name:ja_rm": "Sebun-Irebun" }, "geometry": { "type": "Point", "coordinates": [ 129.650581100000011, 33.0393611 ] } },
{ "type": "Feature", "properties": { "id": "node/4438750205", "name": "セブンイレブン", "name:en": null, "name:ja": null, "name:ko": null, "brand": null, "name:ja_rm": null }, "geometry": { "type": "Point", "coordinates": [ 129.9049885, 33.1427738 ] } },
{ "type": "Feature", "properties": { "id": "node/4693077893", "name": "ニューヤマザキデイリーストア", "name:en": "NYDS", "name:ja": null, "name:ko": null, "brand": null, "name:ja_rm": null }, "geometry": { "type": "Point", "coordinates": [ 129.7905628, 33.0897617 ] } },
{ "type": "Feature", "properties": { "id": "node/4728751507", "name": "ローソン", "name:en": null, "name:ja": "ローソン", "name:ko": "로손", "brand": null, "name:ja_rm": null }, "geometry": { "type": "Point", "coordinates": [ 129.783895300000012, 33.1078673 ] } },
{ "type": "Feature", "properties": { "id": "node/4813297221", "name": "セブン-イレブン", "name:en": "7-Eleven", "name:ja": "セブン-イレブン", "name:ko": null, "brand": "セブン-イレブン", "name:ja_rm": null }, "geometry": { "type": "Point", "coordinates": [ 129.8748363, 32.7424342 ] } },
{ "type": "Feature", "properties": { "id": "node/4813297321", "name": "ファミリーマート", "name:en": "FamilyMart", "name:ja": "ファミリーマート", "name:ko": null, "brand": "FamilyMart", "name:ja_rm": "Famirī Māto" }, "geometry": { "type": "Point", "coordinates": [ 129.8745074, 32.7426141 ] } },
{ "type": "Feature", "properties": { "id": "node/4814819424", "name": "ファミリーマート", "name:en": "FamilyMart", "name:ja": "ファミリーマート", "name:ko": null, "brand": "ファミリーマート", "name:ja_rm": null }, "geometry": { "type": "Point", "coordinates": [ 129.8695539, 32.7359476 ] } },
{ "type": "Feature", "properties": { "id": "node/4817893965", "name": "ファミリーマート", "name:en": "FamilyMart", "name:ja": "ファミリーマート", "name:ko": null, "brand": "FamilyMart", "name:ja_rm": "Famirī Māto" }, "geometry": { "type": "Point", "coordinates": [ 129.8714837, 32.7517453 ] } },
{ "type": "Feature", "properties": { "id": "node/4883142041", "name": "ファミリーマート", "name:en": "FamilyMart", "name:ja": "ファミリーマート", "name:ko": null, "brand": "FamilyMart", "name:ja_rm": "Famirī Māto" }, "geometry": { "type": "Point", "coordinates": [ 129.8684896, 32.7577277 ] } },
{ "type": "Feature", "properties": { "id": "node/4883150923", "name": "ローソン", "name:en": "Lawson", "name:ja": "ローソン", "name:ko": null, "brand": "LAWSON", "name:ja_rm": "Rōson" }, "geometry": { "type": "Point", "coordinates": [ 129.8721548, 32.752532 ] } },
{ "type": "Feature", "properties": { "id": "node/4884739032", "name": "ファミリーマート", "name:en": "FamilyMart", "name:ja": "ファミリーマート", "name:ko": null, "brand": "ファミリーマート", "name:ja_rm": null }, "geometry": { "type": "Point", "coordinates": [ 129.862243, 32.7741567 ] } },
{ "type": "Feature", "properties": { "id": "node/4884832998", "name": "セブン-イレブン", "name:en": "7-Eleven", "name:ja": "セブン-イレブン", "name:ko": null, "brand": "セブン-イレブン", "name:ja_rm": null }, "geometry": { "type": "Point", "coordinates": [ 129.862335300000012, 32.775597 ] } },
{ "type": "Feature", "properties": { "id": "node/5234245923", "name": "ファミリーマート", "name:en": "FamilyMart", "name:ja": "ファミリーマート", "name:ko": null, "brand": "FamilyMart", "name:ja_rm": "Famirī Māto" }, "geometry": { "type": "Point", "coordinates": [ 130.361781400000012, 32.7574341 ] } },
{ "type": "Feature", "properties": { "id": "node/5256788710", "name": "ファミリーマート", "name:en": null, "name:ja": null, "name:ko": null, "brand": null, "name:ja_rm": null }, "geometry": { "type": "Point", "coordinates": [ 129.7931563, 33.0896098 ] } },
{ "type": "Feature", "properties": { "id": "node/5258613764", "name": "ファミリーマート", "name:en": "FamilyMart", "name:ja": "ファミリーマート", "name:ko": null, "brand": "FamilyMart", "name:ja_rm": "Famirī Māto" }, "geometry": { "type": "Point", "coordinates": [ 129.8719523, 32.7496255 ] } },
{ "type": "Feature", "properties": { "id": "node/5258613769", "name": "ローソン", "name:en": "Lawson", "name:ja": "ローソン", "name:ko": "로손", "brand": "ローソン", "name:ja_rm": null }, "geometry": { "type": "Point", "coordinates": [ 129.8719595, 32.7461603 ] } },
{ "type": "Feature", "properties": { "id": "node/5435768931", "name": "ファミリーマート", "name:en": "FamilyMart", "name:ja": "ファミリーマート南風崎町店", "name:ko": null, "brand": null, "name:ja_rm": null }, "geometry": { "type": "Point", "coordinates": [ 129.803012, 33.0869538 ] } },
{ "type": "Feature", "properties": { "id": "node/5629880533", "name": "デイリーヤマザキ 長崎住吉町店", "name:en": null, "name:ja": null, "name:ko": null, "brand": null, "name:ja_rm": null }, "geometry": { "type": "Point", "coordinates": [ 129.8609989, 32.7949162 ] } },
{ "type": "Feature", "properties": { "id": "node/5695604744", "name": "ファミリーマート", "name:en": null, "name:ja": null, "name:ko": null, "brand": null, "name:ja_rm": null }, "geometry": { "type": "Point", "coordinates": [ 129.878217, 32.8065885 ] } },
{ "type": "Feature", "properties": { "id": "node/5695604745", "name": "セブンイレブン", "name:en": null, "name:ja": null, "name:ko": null, "brand": null, "name:ja_rm": null }, "geometry": { "type": "Point", "coordinates": [ 129.871067399999987, 32.8090918 ] } },
{ "type": "Feature", "properties": { "id": "node/5695604746", "name": "ファミリーマート", "name:en": "FamilyMart", "name:ja": "ファミリーマート", "name:ko": null, "brand": "ファミリーマート", "name:ja_rm": null }, "geometry": { "type": "Point", "coordinates": [ 129.8785923, 32.818317 ] } },
{ "type": "Feature", "properties": { "id": "node/5725156077", "name": "ローソン 時津シーサイドひなみ店", "name:en": null, "name:ja": null, "name:ko": "로손", "brand": null, "name:ja_rm": null }, "geometry": { "type": "Point", "coordinates": [ 129.82808, 32.849918 ] } },
{ "type": "Feature", "properties": { "id": "node/5725510001", "name": "ファミリーマート 時津新開店", "name:en": null, "name:ja": null, "name:ko": null, "brand": null, "name:ja_rm": null }, "geometry": { "type": "Point", "coordinates": [ 129.8372317, 32.8414962 ] } },
{ "type": "Feature", "properties": { "id": "node/5725510007", "name": "セブン‐イレブン 時津日並郷店", "name:en": null, "name:ja": null, "name:ko": null, "brand": null, "name:ja_rm": null }, "geometry": { "type": "Point", "coordinates": [ 129.832758500000011, 32.8457702 ] } },
{ "type": "Feature", "properties": { "id": "node/5725510010", "name": "セブン-イレブン 時津左底郷店", "name:en": null, "name:ja": null, "name:ko": null, "brand": null, "name:ja_rm": null }, "geometry": { "type": "Point", "coordinates": [ 129.8411389, 32.8338605 ] } },
{ "type": "Feature", "properties": { "id": "node/5752811008", "name": "セブン-イレブン", "name:en": "7-Eleven", "name:ja": "セブン-イレブン", "name:ko": null, "brand": "セブン-イレブン", "name:ja_rm": null }, "geometry": { "type": "Point", "coordinates": [ 129.8649738, 32.7619796 ] } },
{ "type": "Feature", "properties": { "id": "node/5752811117", "name": "ローソン", "name:en": "Lawson", "name:ja": "ローソン", "name:ko": "로손", "brand": "ローソン", "name:ja_rm": null }, "geometry": { "type": "Point", "coordinates": [ 129.864869700000014, 32.7639076 ] } },
{ "type": "Feature", "properties": { "id": "node/5772816841", "name": "セブン-イレブン", "name:en": "Seven-Eleven", "name:ja": "セブン-イレブン", "name:ko": null, "brand": "7 ELEVEN", "name:ja_rm": "Sebun-Irebun" }, "geometry": { "type": "Point", "coordinates": [ 130.335965, 32.7326344 ] } },
{ "type": "Feature", "properties": { "id": "node/5776959111", "name": "ローソン", "name:en": "Lawson", "name:ja": "ローソン", "name:ko": "로손", "brand": "ローソン", "name:ja_rm": null }, "geometry": { "type": "Point", "coordinates": [ 129.8794853, 32.7505369 ] } },
{ "type": "Feature", "properties": { "id": "node/5893753234", "name": "ファミリーマート対馬厳原大手橋店", "name:en": "FamilyMart", "name:ja": null, "name:ko": null, "brand": null, "name:ja_rm": null }, "geometry": { "type": "Point", "coordinates": [ 129.2911043, 34.2033236 ] } },
{ "type": "Feature", "properties": { "id": "node/5897539069", "name": "ポプラ", "name:en": null, "name:ja": null, "name:ko": null, "brand": null, "name:ja_rm": null }, "geometry": { "type": "Point", "coordinates": [ 129.286863899999986, 34.2155222 ] } },
{ "type": "Feature", "properties": { "id": "node/6054686070", "name": "セブン-イレブン", "name:en": "7-Eleven", "name:ja": "セブン-イレブン", "name:ko": null, "brand": "セブン-イレブン", "name:ja_rm": null }, "geometry": { "type": "Point", "coordinates": [ 129.639220099999989, 32.937295 ] } },
{ "type": "Feature", "properties": { "id": "node/6144532409", "name": "ローソン諫早長田町店", "name:en": null, "name:ja": null, "name:ko": "로손", "brand": null, "name:ja_rm": null }, "geometry": { "type": "Point", "coordinates": [ 130.0809502, 32.861978 ] } },
{ "type": "Feature", "properties": { "id": "node/6217441744", "name": "セブンイレブン 池田二丁目店", "name:en": null, "name:ja": null, "name:ko": null, "brand": null, "name:ja_rm": null }, "geometry": { "type": "Point", "coordinates": [ 129.9645811, 32.9327349 ] } },
{ "type": "Feature", "properties": { "id": "node/6299637248", "name": "ヤマザキショップ", "name:en": "Yamazaki Shop", "name:ja": "ヤマザキショップ", "name:ko": null, "brand": "ヤマザキショップ", "name:ja_rm": "Yamazaki shoppu" }, "geometry": { "type": "Point", "coordinates": [ 130.3651884, 32.7918327 ] } },
{ "type": "Feature", "properties": { "id": "node/6380332172", "name": "ローソン", "name:en": "Lawson", "name:ja": "ローソン", "name:ko": null, "brand": "ローソン", "name:ja_rm": null }, "geometry": { "type": "Point", "coordinates": [ 129.8643947, 32.7704372 ] } },
{ "type": "Feature", "properties": { "id": "node/6544273837", "name": "ファミリーマート", "name:en": "FamilyMart", "name:ja": "ファミリーマート", "name:ko": null, "brand": "FamilyMart", "name:ja_rm": "Famirī Māto" }, "geometry": { "type": "Point", "coordinates": [ 129.882063, 32.7578208 ] } },
{ "type": "Feature", "properties": { "id": "node/6611153989", "name": "ローソン", "name:en": "Lawson", "name:ja": "ローソン", "name:ko": null, "brand": "ローソン", "name:ja_rm": null }, "geometry": { "type": "Point", "coordinates": [ 129.9002955, 33.1456434 ] } },
{ "type": "Feature", "properties": { "id": "node/6698592786", "name": "ファミリーマート南有馬店", "name:en": "FamilyMart", "name:ja": "ファミリーマート 南有馬店", "name:ko": null, "brand": null, "name:ja_rm": null }, "geometry": { "type": "Point", "coordinates": [ 130.2530659, 32.6377107 ] } },
{ "type": "Feature", "properties": { "id": "node/6718425686", "name": "セブン-イレブン 島原南有馬店", "name:en": null, "name:ja": null, "name:ko": null, "brand": null, "name:ja_rm": null }, "geometry": { "type": "Point", "coordinates": [ 130.255405599999989, 32.6529858 ] } },
{ "type": "Feature", "properties": { "id": "node/6874908973", "name": "ファミリーマート", "name:en": "FamilyMart", "name:ja": "ファミリーマート", "name:ko": null, "brand": "ファミリーマート", "name:ja_rm": null }, "geometry": { "type": "Point", "coordinates": [ 129.9421721, 32.7587764 ] } },
{ "type": "Feature", "properties": { "id": "node/6874914665", "name": "ローソン", "name:en": "Lawson", "name:ja": "ローソン", "name:ko": null, "brand": "ローソン", "name:ja_rm": null }, "geometry": { "type": "Point", "coordinates": [ 129.943741100000011, 32.7605408 ] } },
{ "type": "Feature", "properties": { "id": "node/7041143652", "name": "ファミリーマート", "name:en": "FamilyMart", "name:ja": "ファミリーマート", "name:ko": null, "brand": "ファミリーマート", "name:ja_rm": "Famirī Māto" }, "geometry": { "type": "Point", "coordinates": [ 129.727719900000011, 33.1643966 ] } },
{ "type": "Feature", "properties": { "id": "node/7105972209", "name": "ファミリーマート", "name:en": "FamilyMart", "name:ja": "ファミリーマート", "name:ko": null, "brand": "FamilyMart", "name:ja_rm": "Famirī Māto" }, "geometry": { "type": "Point", "coordinates": [ 129.8761144, 32.7422407 ] } },
{ "type": "Feature", "properties": { "id": "node/7361963906", "name": "ローソン", "name:en": "Lawson", "name:ja": "ローソン", "name:ko": null, "brand": "ローソン", "name:ja_rm": null }, "geometry": { "type": "Point", "coordinates": [ 129.8596646, 32.7920168 ] } },
{ "type": "Feature", "properties": { "id": "node/7361963916", "name": "セブン-イレブン", "name:en": "7-Eleven", "name:ja": "セブン-イレブン", "name:ko": null, "brand": "セブン-イレブン", "name:ja_rm": null }, "geometry": { "type": "Point", "coordinates": [ 129.86645870000001, 32.7904481 ] } },
{ "type": "Feature", "properties": { "id": "node/7361963917", "name": "ローソン", "name:en": "Lawson", "name:ja": "ローソン", "name:ko": null, "brand": "ローソン", "name:ja_rm": null }, "geometry": { "type": "Point", "coordinates": [ 129.8647703, 32.7913781 ] } },
{ "type": "Feature", "properties": { "id": "node/7361963930", "name": "ファミリーマート", "name:en": "FamilyMart", "name:ja": "ファミリーマート", "name:ko": null, "brand": "ファミリーマート", "name:ja_rm": null }, "geometry": { "type": "Point", "coordinates": [ 129.861582700000014, 32.7925396 ] } },
{ "type": "Feature", "properties": { "id": "node/7396962722", "name": "セブン-イレブン", "name:en": "7-Eleven", "name:ja": "セブン-イレブン", "name:ko": null, "brand": "セブン-イレブン", "name:ja_rm": null }, "geometry": { "type": "Point", "coordinates": [ 129.861016799999987, 32.7855264 ] } },
{ "type": "Feature", "properties": { "id": "node/7396962723", "name": "ファミリーマート", "name:en": "FamilyMart", "name:ja": "ファミリーマート", "name:ko": null, "brand": "ファミリーマート", "name:ja_rm": null }, "geometry": { "type": "Point", "coordinates": [ 129.860888499999987, 32.7833914 ] } },
{ "type": "Feature", "properties": { "id": "node/7396962724", "name": "ファミリーマート", "name:en": "FamilyMart", "name:ja": "ファミリーマート", "name:ko": null, "brand": "ファミリーマート", "name:ja_rm": null }, "geometry": { "type": "Point", "coordinates": [ 129.8606924, 32.7799868 ] } },
{ "type": "Feature", "properties": { "id": "node/7772983425", "name": "FamilyMart 末永時津野田店", "name:en": "FamilyMart", "name:ja": "ファミリーマート", "name:ko": null, "brand": "ファミリーマート", "name:ja_rm": null }, "geometry": { "type": "Point", "coordinates": [ 129.8359222, 32.8177677 ] } },
{ "type": "Feature", "properties": { "id": "node/8494485035", "name": "ミニマート(Mini-Mart)", "name:en": null, "name:ja": null, "name:ko": null, "brand": null, "name:ja_rm": null }, "geometry": { "type": "Point", "coordinates": [ 129.781033900000011, 33.0831043 ] } }
]
}
